{
    "links": {
        "self": "http://www.neowsapp.com/rest/v1/neo/3760439?api_key=iIulBulltgU6a56xZRHN4H3l9WmuAYTsLGpBGhQ2"
    },
    "id": "3760439",
    "neo_reference_id": "3760439",
    "name": "(2016 TK10)",
    "designation": "2016 TK10",
    "nasa_jpl_url": "http://ssd.jpl.nasa.gov/sbdb.cgi?sstr=3760439",
    "absolute_magnitude_h": 26.3,
    "estimated_diameter": {
        "kilometers": {
            "estimated_diameter_min": 0.0146067964,
            "estimated_diameter_max": 0.0326617897
        },
        "meters": {
            "estimated_diameter_min": 14.6067964271,
            "estimated_diameter_max": 32.6617897446
        },
        "miles": {
            "estimated_diameter_min": 0.0090762397,
            "estimated_diameter_max": 0.020295089
        },
        "feet": {
            "estimated_diameter_min": 47.92256199,
            "estimated_diameter_max": 107.1581062656
        }
    },
    "is_potentially_hazardous_asteroid": false,
    "close_approach_data": [
        {
            "close_approach_date": "2016-10-02",
            "close_approach_date_full": "2016-Oct-02 22:29",
            "epoch_date_close_approach": 1475447340000,
            "relative_velocity": {
                "kilometers_per_second": "9.5671521061",
                "kilometers_per_hour": "34441.7475817856",
                "miles_per_hour": "21400.7625460267"
            },
            "miss_distance": {
                "astronomical": "0.008855228",
                "lunar": "3.444683692",
                "kilometers": "1324723.24716436",
                "miles": "823144.856053768"
            },
            "orbiting_body": "Moon"
        },
        {
            "close_approach_date": "2016-10-03",
            "close_approach_date_full": "2016-Oct-03 06:31",
            "epoch_date_close_approach": 1475476260000,
            "relative_velocity": {
                "kilometers_per_second": "9.0569375543",
                "kilometers_per_hour": "32604.9751954707",
                "miles_per_hour": "20259.4636152079"
            },
            "miss_distance": {
                "astronomical": "0.007768059",
                "lunar": "3.021774951",
                "kilometers": "1162085.08043433",
                "miles": "722086.185400554"
            },
            "orbiting_body": "Earth"
        }
    ],
    "orbital_data": {
        "orbit_id": "7",
        "orbit_determination_date": "2017-04-06 08:23:21",
        "first_observation_date": "2016-10-05",
        "last_observation_date": "2016-10-12",
        "data_arc_in_days": 7,
        "observations_used": 44,
        "orbit_uncertainty": "7",
        "minimum_orbit_intersection": ".00429649",
        "jupiter_tisserand_invariant": "3.398",
        "epoch_osculation": "2459000.5",
        "eccentricity": ".5648464472033563",
        "semi_major_axis": "2.249552204674701",
        "inclination": ".8071031337228871",
        "ascending_node_longitude": "169.6603915334267",
        "orbital_period": "1232.374039416244",
        "perihelion_distance": ".9789006340657188",
        "perihelion_argument": "177.890803836649",
        "aphelion_distance": "3.520203775283683",
        "perihelion_time": "2458878.340316891058",
        "mean_anomaly": "35.68517715615832",
        "mean_motion": ".2921191038481516",
        "equinox": "J2000",
        "orbit_class": {
            "orbit_class_type": "APO",
            "orbit_class_description": "Near-Earth asteroid orbits which cross the Earth’s orbit similar to that of 1862 Apollo",
            "orbit_class_range": "a (semi-major axis) > 1.0 AU; q (perihelion) < 1.017 AU"
        }
    },
    "is_sentry_object": false
}